BEIDOU 3 (C01)          
1 36287U 10001A   22250.89732375 -.00000299  00000+0  00000+0 0  9992
2 36287   1.6522  46.5661 0001880  14.2482  29.5575  1.00275680 46349
BEIDOU 5 (C06)          
1 36828U 10036A   22251.31171266 -.00000178  00000+0  00000+0 0  9991
2 36828  54.1994 175.4724 0030383 187.7650 204.3758  1.00274009 44417
BEIDOU 6 (C04)          
1 37210U 10057A   22249.82915089 -.00000127  00000+0  00000+0 0  9996
2 37210   0.9968  55.0960 0006284 137.0622 252.3633  1.00272655 43451
BEIDOU 7 (C07)          
1 37256U 10068A   22250.83530056 -.00000166  00000+0  00000+0 0  9991
2 37256  50.0645 288.6586 0024117 203.7071 263.2201  1.00281418 42976
BEIDOU 8 (C08)          
1 37384U 11013A   22250.89457595 -.00000157  00000+0  00000+0 0  9996
2 37384  60.4124  53.4417 0023728 177.1955 186.1932  1.00285755 41856
BEIDOU 9 (C09)          
1 37763U 11038A   22250.61041475 -.00000128  00000+0  00000+0 0  9998
2 37763  54.4814 177.9788 0098905 228.0287 255.3124  1.00264044 40828
BEIDOU 10 (C10)         
1 37948U 11073A   22250.56525175 -.00000120  00000+0  00000+0 0  9992
2 37948  50.1828 288.3087 0086716 219.3723 138.5768  1.00275899 39571
BEIDOU 11 (C05)         
1 38091U 12008A   22250.93729837  .00000037  00000+0  00000+0 0  9999
2 38091   1.7423  69.4768 0011725 343.8130 329.8095  1.00271350 38655
BEIDOU 12 (C11)         
1 38250U 12018A   22250.35936110 -.00000101  00000+0  00000+0 0  9990
2 38250  56.6700 350.8559 0022456 249.6427 155.3401  1.86234461 70610
BEIDOU 13 (C12)         
1 38251U 12018B   22250.65893622 -.00000101  00000+0  00000+0 0  9994
2 38251  56.5852 350.1651 0013193 248.7639  41.2410  1.86234252 70618
BEIDOU 15 (C14)         
1 38775U 12050B   22250.28931505  .00000016  00000+0  00000+0 0  9997
2 38775  55.4470 108.9307 0012724 332.1303 266.0201  1.86231521 67982
BEIDOU 16 (C02)         
1 38953U 12059A   22250.86255991 -.00000197  00000+0  00000+0 0  9997
2 38953   1.1240  81.1691 0024147 297.7875   2.5935  1.00273632 36082
BEIDOU 17 (C31)         
1 40549U 15019A   22250.83997800 -.00000163  00000+0  00000+0 0  9992
2 40549  51.7434 311.8014 0038639 197.0253 236.2233  1.00279911 27260
BEIDOU 18 (C57)         
1 40748U 15037A   22250.32696464 -.00000100  00000+0  00000+0 0  9990
2 40748  55.8368 348.9921 0002012  61.6537 275.1111  1.86233528 48434
BEIDOU 19 (C58)         
1 40749U 15037B   22251.24699655 -.00000102  00000+0  00000+0 0  9990
2 40749  55.8398 348.9509 0002466 311.6439  56.1709  1.86232946 48457
BEIDOU 20 (C18)         
1 40938U 15053A   22250.49738244 -.00000092  00000+0  00000+0 0  9990
2 40938  51.3744 274.9278 0046230 199.9480 147.3518  1.00273819 25528
BEIDOU IGSO-6 (C13)     
1 41434U 16021A   22249.47778145 -.00000130  00000+0  00000+0 0  9991
2 41434  58.2193  51.9947 0044674 215.0012 346.0473  1.00267418 23648
BEIDOU-2 G7 (C03)       
1 41586U 16037A   22250.88150102 -.00000374  00000+0  00000+0 0  9990
2 41586   1.5531  67.6333 0008585 357.4867 349.5491  1.00278385 22963
BEIDOU-3 M1 (C19)       
1 43001U 17069A   22250.66917615  .00000019  00000+0  00000+0 0  9991
2 43001  55.5986 108.9286 0008344 297.1337 352.0369  1.86231869 32921
BEIDOU-3 M2 (C20)       
1 43002U 17069B   22250.49314634  .00000018  00000+0  00000+0 0  9994
2 43002  55.5982 108.9711 0006761 326.1212 247.9287  1.86231249 32919
BEIDOU-3 M3 (C27)       
1 43107U 18003A   22250.86503863 -.00000103  00000+0  00000+0 0  9990
2 43107  55.2877 349.8554 0004245  72.2761 197.3648  1.86232643 31680
BEIDOU-3 M4 (C28)       
1 43108U 18003B   22250.49103235 -.00000102  00000+0  00000+0 0  9998
2 43108  55.2808 349.8562 0003091 229.6466 192.6682  1.86231011 31686
BEIDOU-3 M5 (C21)       
1 43207U 18018A   22250.59808260  .00000018  00000+0  00000+0 0  9990
2 43207  55.5587 109.0422 0005187   0.6355 195.4217  1.86231771 31066
BEIDOU-3 M6 (C22)       
1 43208U 18018B   22250.37247483  .00000017  00000+0  00000+0 0  9990
2 43208  55.5581 109.0553 0006634 313.0037  47.0345  1.86231690 31066
BEIDOU-3 M7 (C29)       
1 43245U 18029A   22250.55196110 -.00000100  00000+0  00000+0 0  9997
2 43245  55.1972 347.6290 0001005 165.6135 164.6126  1.86232804 30219
BEIDOU-3 M8 (C30)       
1 43246U 18029B   22250.08706650 -.00000099  00000+0  10000-3 0  9994
2 43246  55.1951 347.6739 0002867   6.6679  58.4686  1.86233022 30202
BEIDOU IGSO-7 (C16)     
1 43539U 18057A   22250.73365520 -.00000184  00000+0  00000+0 0  9999
2 43539  55.0908 175.0034 0052637 228.5396 321.1435  1.00285696 15339
BEIDOU-3 M9 (C23)       
1 43581U 18062A   22250.33796576  .00000031  00000+0  00000+0 0  9997
2 43581  54.2549 229.2810 0005515 279.0476 165.5324  1.86232644 27952
BEIDOU-3 M10 (C24)      
1 43582U 18062B   22250.87791898  .00000022  00000+0  00000+0 0  9999
2 43582  54.2560 229.2525 0005047 338.0162 200.4550  1.86232414 27963
BEIDOU-3 M11 (C25)      
1 43602U 18067A   22250.87337627  .00000021  00000+0  00000+0 0  9992
2 43602  54.3395 227.8744 0006843   0.5152 216.1451  1.86231653 27457
BEIDOU-3 M12 (C26)      
1 43603U 18067B   22250.35961178  .00000029  00000+0  00000+0 0  9998
2 43603  54.3365 227.8586 0004200 342.9369 159.6273  1.86231630 27466
BEIDOU-3 M13 (C32)      
1 43622U 18072A   22250.60905189  .00000018  00000+0  00000+0 0  9991
2 43622  55.5251 108.5938 0005071 294.3090  44.5665  1.86231916 26977
BEIDOU-3 M14 (C33)      
1 43623U 18072B   22250.50352801  .00000018  00000+0  00000+0 0  9998
2 43623  55.5274 108.5908 0003908 333.8588  24.5089  1.86231912 26972
BEIDOU-3 M15 (C34)      
1 43647U 18078A   22249.55593236 -.00000098  00000+0  10000-3 0  9996
2 43647  55.0927 347.8149 0005285   9.0191 329.6615  1.86232987 26466
BEIDOU-3 M16 (C35)      
1 43648U 18078B   22250.35906013 -.00000100  00000+0  00000+0 0  9997
2 43648  55.0890 347.7933 0003402  30.2381  34.5348  1.86232384 26503
BEIDOU-3 G1 (C59)       
1 43683U 18085A   22250.89950713 -.00000299  00000+0  00000+0 0  9998
2 43683   0.9797 153.2632 0004190  31.4284 266.0343  1.00276530 14234
BEIDOU-3 M17 (C36)      
1 43706U 18093A   22250.41313707  .00000030  00000+0  00000+0 0  9999
2 43706  54.3392 229.1697 0011007 276.1574  83.6969  1.86231776 25868
BEIDOU-3 M18 (C37)      
1 43707U 18093B   22250.54508238  .00000028  00000+0  00000+0 0  9996
2 43707  54.3400 229.1555 0009410 297.2067 242.4058  1.86232285 25857
BEIDOU-3 IGSO-1 (C38)   
1 44204U 19023A   22250.88239323 -.00000194  00000+0  00000+0 0  9991
2 44204  56.6803  52.0861 0023400 188.3380 183.4899  1.00285068 12540
BEIDOU-2 G8             
1 44231U 19027A   22250.93532876 -.00000268  00000+0  00000+0 0  9992
2 44231   1.0538  78.7285 0005874 114.6806 274.7762  1.00268147 12254
BEIDOU-3 IGSO-2 (C39)   
1 44337U 19035A   22250.66818141 -.00000187  00000+0  00000+0 0  9990
2 44337  55.1263 170.9930 0025856 193.0659 342.8393  1.00279623 11872
BEIDOU-3 M23 (C45)      
1 44542U 19061A   22250.34933888  .00000032  00000+0  00000+0 0  9996
2 44542  54.5659 229.3301 0008812 328.7136  31.2145  1.86231410 20110
BEIDOU-3 M24 (C46)      
1 44543U 19061B   22251.16507889  .00000018  00000+0  00000+0 0  9990
2 44543  54.5629 229.2721 0006469 310.6648 147.5999  1.86231901 20121
BEIDOU-3 IGSO-3         
1 44709U 19073A   22249.60502722 -.00000150  00000+0  10000-3 0  9997
2 44709  57.1319 295.5427 0027564 181.0617 206.5907  1.00284430 10613
BEIDOU-3 M21            
1 44793U 19078A   22250.46091113 -.00000100  00000+0  10000-3 0  9993
2 44793  54.9417 347.7958 0005199  19.1945 159.9994  1.86232423 18977
BEIDOU-3 M22            
1 44794U 19078B   22250.48248435 -.00000100  00000+0  00000+0 0  9992
2 44794  54.9160 347.7850 0003021  15.6051  89.8569  1.86232865 18974
BEIDOU-3 M19            
1 44864U 19090A   22250.47248463  .00000017  00000+0  00000+0 0  9990
2 44864  55.4603 108.8056 0015514 271.9315  21.2342  1.86232085 18551
BEIDOU-3 M20            
1 44865U 19090B   22250.33545310  .00000016  00000+0  00000+0 0  9996
2 44865  55.4628 108.8421 0013786 287.5636   3.5823  1.86232024 18520
BEIDOU-3 G2             
1 45344U 20017A   22250.86275936 -.00000159  00000+0  00000+0 0  9991
2 45344   2.0233 356.1931 0004595 147.0286 234.3077  1.00272640  9446
BEIDOU-3 G3             
1 45807U 20040A   22250.88140891 -.00000374  00000+0  00000+0 0  9993
2 45807   1.2612 305.8191 0007000 332.6108 136.3563  1.00273576  8258
